ORBCOMM FM115 [+]       
1 41186U 15081H   23267.90803677  .00001141  00000+0  27140-3 0  9998
2 41186  46.9988 155.4366 0000594   4.3522 355.7369 14.59916347415456
ORBCOMM FM108 [+]       
1 41187U 15081J   23267.86481288  .00001514  00000+0  37910-3 0  9994
2 41187  47.0044 202.8047 0003122 304.1585  55.9004 14.55914528414735
ORBCOMM FM117 [+]       
1 41188U 15081K   23268.10452329  .00001541  00000+0  38519-3 0  9993
2 41188  47.0005 200.6417 0003800 312.6153  47.4411 14.55902381414864
ORBCOMM FM116 [+]       
1 41189U 15081L   23268.09455034  .00001164  00000+0  30016-3 0  9993
2 41189  47.0019 290.4982 0001624   5.7069 354.3834 14.55907831413696
